[{"OBJECT_NAME":"YAOGAN-43 02A","OBJECT_ID":"2024-156A","EPOCH":"2026-03-09T11:06:18.195840","MEAN_MOTION":15.41475476,"ECCENTRICITY":8.054e-5,"INCLINATION":34.9957,"RA_OF_ASC_NODE":81.8622,"ARG_OF_PERICENTER":221.9853,"MEAN_ANOMALY":138.0806,"EPHEMERIS_TYPE":0,"CLASSIFICATION_TYPE":"U","NORAD_CAT_ID":60945,"ELEMENT_SET_NO":999,"REV_AT_EPOCH":8452,"BSTAR":0.0010251268,"MEAN_MOTION_DOT":0.00044393,"MEAN_MOTION_DDOT":0},{"OBJECT_NAME":"3CAT-5B","OBJECT_ID":"2020-061X","EPOCH":"2026-03-09T17:27:32.010912","MEAN_MOTION":15.4399748,"ECCENTRICITY":0.00036507,"INCLINATION":97.2528,"RA_OF_ASC_NODE":132.7082,"ARG_OF_PERICENTER":115.4768,"MEAN_ANOMALY":244.6858,"EPHEMERIS_TYPE":0,"CLASSIFICATION_TYPE":"U","NORAD_CAT_ID":46293,"ELEMENT_SET_NO":999,"REV_AT_EPOCH":30569,"BSTAR":0.00041749313,"MEAN_MOTION_DOT":0.00018965,"MEAN_MOTION_DDOT":0}]
